ONEWEB-0198             
1 48216U 21031G   23344.79984145  .00000236  00000+0  60074-3 0  9991
2 48216  87.8958 112.7312 0001816 113.1558 246.9763 13.14503962127680
ONEWEB-0189             
1 48217U 21031H   23344.81252939  .00000215  00000+0  54621-3 0  9992
2 48217  87.8956 112.7062 0001980 111.2648 248.8693 13.14503130127446
ONEWEB-0196             
1 48218U 21031J   23344.33362223  .00000075  00000+0  16776-3 0  9991
2 48218  87.8968 112.7998 0001668 108.0608 252.0703 13.14503364127382
ONEWEB-0183             
1 48219U 21031K   23344.76494476 -.00000126  00000+0 -37506-3 0  9998
2 48219  87.8962 112.7332 0001574  97.6291 262.5018 13.14500761127536
ONEWEB-0185             
1 48220U 21031L   23344.79111841 -.00000171  00000+0 -49594-3 0  9995
2 48220  87.8949 112.6993 0002381 108.1571 251.9818 13.14500755127466
ONEWEB-0187             
1 48221U 21031M   23344.30436365 -.00000130  00000+0 -38508-3 0  9992
2 48221  87.8967 112.8269 0001726 101.2934 258.8390 13.14503626127410
ONEWEB-0192             
1 48222U 21031N   23344.36058036  .00000228  00000+0  58160-3 0  9996
2 48222  87.9011 112.8072 0001607 105.4892 254.6415 13.14502660127331
ONEWEB-0219             
1 48223U 21031P   23344.79666569  .00000024  00000+0  31462-4 0  9991
2 48223  87.8959 112.7031 0001738 100.4313 259.7012 13.14501747127608
